start=new Date('2022-05-02T00:00:00.000Z').valueOf();
sats=[{"TLE_LINE1":"1 48480U 21040BE  22121.80192740  .00002107  00000-0  16040-3 0  9994","DECAY_DATE":null,"MEAN_MOTION_DOT":"0.00002107","SITE":"AFETR","TLE_LINE2":"2 48480  53.0574  41.8749 0001443  43.1496 316.9606 15.06372066 54143","PERIAPSIS":"546.300","COUNTRY_CODE":"US","EPHEMERIS_TYPE":"0","LAUNCH_DATE":"2021-05-09","GP_ID":"202473760","OBJECT_ID":"2021-040BE","OBJECT_NAME":"STARLINK-2690","MEAN_MOTION_DDOT":"0.0000000000000","INCLINATION":"53.0574","FILE":"3424759","REF_FRAME":"TEME","ECCENTRICITY":"0.00014430","REV_AT_EPOCH":"5414","MEAN_ANOMALY":"316.9606","OBJECT_TYPE":"PAYLOAD","CENTER_NAME":"EARTH","PERIOD":"95.594","ELEMENT_SET_NO":"999","NORAD_CAT_ID":"48480","EPOCH":"2022-05-01T19:14:46.527360","CLASSIFICATION_TYPE":"U","TIME_SYSTEM":"UTC","ARG_OF_PERICENTER":"43.1496","RCS_SIZE":"LARGE","APOAPSIS":"548.299","BSTAR":"0.00016040000000","RA_OF_ASC_NODE":"41.8749","MEAN_ELEMENT_THEORY":"SGP4","MEAN_MOTION":"15.06372066","SEMIMAJOR_AXIS":"6925.434"},{"GP_ID":"202436967","OBJECT_ID":"2021-040BF","OBJECT_NAME":"STARLINK-2706","MEAN_MOTION_DDOT":"0.0000000000000","INCLINATION":"53.0567","FILE":"3424314","REF_FRAME":"TEME","ECCENTRICITY":"0.00016760","REV_AT_EPOCH":"5409","OBJECT_TYPE":"PAYLOAD","MEAN_ANOMALY":"297.3541","CENTER_NAME":"EARTH","TLE_LINE1":"1 48481U 21040BF  22121.48398653 -.00000094  00000-0  12609-4 0  9992","DECAY_DATE":null,"MEAN_MOTION_DOT":"-0.00000094","SITE":"AFETR","PERIAPSIS":"546.096","TLE_LINE2":"2 48481  53.0567  43.3042 0001676  62.7619 297.3541 15.06386063 54097","COUNTRY_CODE":"US","EPHEMERIS_TYPE":"0","LAUNCH_DATE":"2021-05-09","ARG_OF_PERICENTER":"62.7619","TIME_SYSTEM":"UTC","RCS_SIZE":"LARGE","APOAPSIS":"548.417","BSTAR":"0.00001260900000","RA_OF_ASC_NODE":"43.3042","MEAN_ELEMENT_THEORY":"SGP4","MEAN_MOTION":"15.06386063","SEMIMAJOR_AXIS":"6925.391","PERIOD":"95.593","ELEMENT_SET_NO":"999","NORAD_CAT_ID":"48481","EPOCH":"2022-05-01T11:36:56.436192","CLASSIFICATION_TYPE":"U"},{"RCS_SIZE":"LARGE","APOAPSIS":"548.540","ARG_OF_PERICENTER":"62.0291","TIME_SYSTEM":"UTC","BSTAR":"0.00022108000000","RA_OF_ASC_NODE":"43.3413","MEAN_ELEMENT_THEORY":"SGP4","MEAN_MOTION":"15.06378152","SEMIMAJOR_AXIS":"6925.416","NORAD_CAT_ID":"48482","PERIOD":"95.594","ELEMENT_SET_NO":"999","CLASSIFICATION_TYPE":"U","EPOCH":"2022-05-01T11:27:41.296320","OBJECT_ID":"2021-040BG","GP_ID":"202437217","INCLINATION":"53.0559","OBJECT_NAME":"STARLINK-2525","MEAN_MOTION_DDOT":"0.0000000000000","REF_FRAME":"TEME","FILE":"3424314","OBJECT_TYPE":"PAYLOAD","MEAN_ANOMALY":"298.0882","CENTER_NAME":"EARTH","ECCENTRICITY":"0.00018180","REV_AT_EPOCH":"5409","DECAY_DATE":null,"TLE_LINE1":"1 48482U 21040BG  22121.47756130  .00003011  00000-0  22108-3 0  9995","MEAN_MOTION_DOT":"0.00003011","COUNTRY_CODE":"US","EPHEMERIS_TYPE":"0","SITE":"AFETR","PERIAPSIS":"546.021","TLE_LINE2":"2 48482  53.0559  43.3413 0001818  62.0291 298.0882 15.06378152 54094","LAUNCH_DATE":"2021-05-09"},{"DECAY_DATE":null,"TLE_LINE1":"1 48483U 21040BH  22121.80560809  .00001481  00000-0  11837-3 0  9995","MEAN_MOTION_DOT":"0.00001481","COUNTRY_CODE":"US","EPHEMERIS_TYPE":"0","SITE":"AFETR","PERIAPSIS":"545.831","TLE_LINE2":"2 48483  53.0551  41.8656 0002045  50.2330 309.8839 15.06389045 54147","LAUNCH_DATE":"2021-05-09","OBJECT_ID":"2021-040BH","GP_ID":"202474017","INCLINATION":"53.0551","OBJECT_NAME":"STARLINK-2531","MEAN_MOTION_DDOT":"0.0000000000000","REF_FRAME":"TEME","FILE":"3424759","MEAN_ANOMALY":"309.8839","OBJECT_TYPE":"PAYLOAD","CENTER_NAME":"EARTH","ECCENTRICITY":"0.00020450","REV_AT_EPOCH":"5414","NORAD_CAT_ID":"48483","PERIOD":"95.593","ELEMENT_SET_NO":"999","CLASSIFICATION_TYPE":"U","EPOCH":"2022-05-01T19:20:04.538976","RCS_SIZE":"LARGE","APOAPSIS":"548.663","ARG_OF_PERICENTER":"50.2330","TIME_SYSTEM":"UTC","BSTAR":"0.00011837000000","RA_OF_ASC_NODE":"41.8656","MEAN_ELEMENT_THEORY":"SGP4","MEAN_MOTION":"15.06389045","SEMIMAJOR_AXIS":"6925.382"},{"REF_FRAME":"TEME","FILE":"3424314","CENTER_NAME":"EARTH","OBJECT_TYPE":"PAYLOAD","MEAN_ANOMALY":"297.2027","REV_AT_EPOCH":"5410","ECCENTRICITY":"0.00016890","OBJECT_ID":"2021-040BJ","GP_ID":"202438219","INCLINATION":"53.0570","MEAN_MOTION_DDOT":"0.0000000000000","OBJECT_NAME":"STARLINK-2696","EPHEMERIS_TYPE":"0","COUNTRY_CODE":"US","TLE_LINE2":"2 48484  53.0570  43.1487 0001689  62.9134 297.2027 15.06392518 54105","PERIAPSIS":"546.067","SITE":"AFETR","LAUNCH_DATE":"2021-05-09","DECAY_DATE":null,"TLE_LINE1":"1 48484U 21040BJ  22121.51715416  .00000221  00000-0  33758-4 0  9998","MEAN_MOTION_DOT":"0.00000221","MEAN_MOTION":"15.06392518","MEAN_ELEMENT_THEORY":"SGP4","SEMIMAJOR_AXIS":"6925.371","APOAPSIS":"548.406","RCS_SIZE":"LARGE","TIME_SYSTEM":"UTC","ARG_OF_PERICENTER":"62.9134","RA_OF_ASC_NODE":"43.1487","BSTAR":"0.00003375800000","CLASSIFICATION_TYPE":"U","EPOCH":"2022-05-01T12:24:42.119424","NORAD_CAT_ID":"48484","ELEMENT_SET_NO":"999","PERIOD":"95.593"},{"MEAN_MOTION":"15.06385024","MEAN_ELEMENT_THEORY":"SGP4","SEMIMAJOR_AXIS":"6925.394","TIME_SYSTEM":"UTC","ARG_OF_PERICENTER":"66.5155","APOAPSIS":"548.202","RCS_SIZE":"LARGE","RA_OF_ASC_NODE":"41.8307","BSTAR":"0.00017991000000","EPOCH":"2022-05-01T19:30:41.364000","CLASSIFICATION_TYPE":"U","ELEMENT_SET_NO":"999","PERIOD":"95.593","NORAD_CAT_ID":"48485","FILE":"3424759","REF_FRAME":"TEME","REV_AT_EPOCH":"5414","ECCENTRICITY":"0.00013610","CENTER_NAME":"EARTH","MEAN_ANOMALY":"293.5977","OBJECT_TYPE":"PAYLOAD","GP_ID":"202473018","OBJECT_ID":"2021-040BK","MEAN_MOTION_DDOT":"0.0000000000000","OBJECT_NAME":"STARLINK-2500","INCLINATION":"53.0563","PERIAPSIS":"546.317","TLE_LINE2":"2 48485  53.0563  41.8307 0001361  66.5155 293.5977 15.06385024 54145","SITE":"AFETR","EPHEMERIS_TYPE":"0","COUNTRY_CODE":"US","LAUNCH_DATE":"2021-05-09","TLE_LINE1":"1 48485U 21040BK  22121.81297875  .00002398  00000-0  17991-3 0  9993","DECAY_DATE":null,"MEAN_MOTION_DOT":"0.00002398"},{"BSTAR":"-0.00003576700000","RA_OF_ASC_NODE":"43.3019","ARG_OF_PERICENTER":"52.1220","TIME_SYSTEM":"UTC","RCS_SIZE":"LARGE","APOAPSIS":"548.555","SEMIMAJOR_AXIS":"6925.392","MEAN_ELEMENT_THEORY":"SGP4","MEAN_MOTION":"15.06385779","PERIOD":"95.593","ELEMENT_SET_NO":"999","NORAD_CAT_ID":"48486","EPOCH":"2022-05-01T11:38:17.577024","CLASSIFICATION_TYPE":"U","OBJECT_NAME":"STARLINK-2496","MEAN_MOTION_DDOT":"0.0000000000000","INCLINATION":"53.0559","GP_ID":"202437717","OBJECT_ID":"2021-040BL","ECCENTRICITY":"0.00018740","REV_AT_EPOCH":"5409","OBJECT_TYPE":"PAYLOAD","MEAN_ANOMALY":"307.9938","CENTER_NAME":"EARTH","FILE":"3424314","REF_FRAME":"TEME","MEAN_MOTION_DOT":"-0.00000814","DECAY_DATE":null,"TLE_LINE1":"1 48486U 21040BL  22121.48492566 -.00000814  00000-0 -35767-4 0  9996","LAUNCH_DATE":"2021-05-09","SITE":"AFETR","PERIAPSIS":"545.959","TLE_LINE2":"2 48486  53.0559  43.3019 0001874  52.1220 307.9938 15.06385779 54099","COUNTRY_CODE":"US","EPHEMERIS_TYPE":"0"},{"RCS_SIZE":"LARGE","APOAPSIS":"548.430","ARG_OF_PERICENTER":"53.5238","TIME_SYSTEM":"UTC","BSTAR":"-0.00005828900000","RA_OF_ASC_NODE":"43.2841","MEAN_ELEMENT_THEORY":"SGP4","MEAN_MOTION":"15.06384183","SEMIMAJOR_AXIS":"6925.397","NORAD_CAT_ID":"48487","PERIOD":"95.593","ELEMENT_SET_NO":"999","CLASSIFICATION_TYPE":"U","EPOCH":"2022-05-01T11:43:36.618528","OBJECT_ID":"2021-040BM","GP_ID":"202437969","INCLINATION":"53.0548","OBJECT_NAME":"STARLINK-2494","MEAN_MOTION_DDOT":"0.0000000000000","REF_FRAME":"TEME","FILE":"3424314","OBJECT_TYPE":"PAYLOAD","MEAN_ANOMALY":"306.5906","CENTER_NAME":"EARTH","ECCENTRICITY":"0.00016860","REV_AT_EPOCH":"5410","DECAY_DATE":null,"TLE_LINE1":"1 48487U 21040BM  22121.48861827 -.00001149  00000-0 -58289-4 0  9993","MEAN_MOTION_DOT":"-0.00001149","COUNTRY_CODE":"US","EPHEMERIS_TYPE":"0","SITE":"AFETR","TLE_LINE2":"2 48487  53.0548  43.2841 0001686  53.5238 306.5906 15.06384183 54105","PERIAPSIS":"546.094","LAUNCH_DATE":"2021-05-09"},{"LAUNCH_DATE":"2021-05-15","COUNTRY_CODE":"US","EPHEMERIS_TYPE":"0","SITE":"AFETR","PERIAPSIS":"546.275","TLE_LINE2":"2 48553  53.0546 331.6048 0001406  83.7278 276.3871 15.06388598 53017","MEAN_MOTION_DOT":"0.00000510","TLE_LINE1":"1 48553U 21041A   22121.86366544  .00000510  00000-0  53166-4 0  9994","DECAY_DATE":null,"MEAN_ANOMALY":"276.3871","OBJECT_TYPE":"PAYLOAD","CENTER_NAME":"EARTH","ECCENTRICITY":"0.00014060","REV_AT_EPOCH":"5301","REF_FRAME":"TEME","FILE":"3424759","INCLINATION":"53.0546","OBJECT_NAME":"STARLINK-2063","MEAN_MOTION_DDOT":"0.0000000000000","OBJECT_ID":"2021-041A","GP_ID":"202474268","CLASSIFICATION_TYPE":"U","EPOCH":"2022-05-01T20:43:40.694016","NORAD_CAT_ID":"48553","PERIOD":"95.593","ELEMENT_SET_NO":"999","SEMIMAJOR_AXIS":"6925.384","MEAN_ELEMENT_THEORY":"SGP4","MEAN_MOTION":"15.06388598","BSTAR":"0.00005316600000","RA_OF_ASC_NODE":"331.6048","RCS_SIZE":"LARGE","APOAPSIS":"548.222","TIME_SYSTEM":"UTC","ARG_OF_PERICENTER":"83.7278"},{"PERIOD":"95.593","ELEMENT_SET_NO":"999","NORAD_CAT_ID":"48554","EPOCH":"2022-05-01T20:54:17.501760","CLASSIFICATION_TYPE":"U","ARG_OF_PERICENTER":"95.3920","TIME_SYSTEM":"UTC","RCS_SIZE":"LARGE","APOAPSIS":"548.250","BSTAR":"0.00003045400000","RA_OF_ASC_NODE":"331.5690","MEAN_ELEMENT_THEORY":"SGP4","MEAN_MOTION":"15.06383425","SEMIMAJOR_AXIS":"6925.399","DECAY_DATE":null,"TLE_LINE1":"1 48554U 21041B   22121.87103590  .00000172  00000-0  30454-4 0  9995","MEAN_MOTION_DOT":"0.00000172","SITE":"AFETR","TLE_LINE2":"2 48554  53.0559 331.5690 0001423  95.3920 264.7231 15.06383425 53011","PERIAPSIS":"546.279","EPHEMERIS_TYPE":"0","COUNTRY_CODE":"US","LAUNCH_DATE":"2021-05-15","GP_ID":"202473026","OBJECT_ID":"2021-041B","OBJECT_NAME":"STARLINK-2139","MEAN_MOTION_DDOT":"0.0000000000000","INCLINATION":"53.0559","FILE":"3424759","REF_FRAME":"TEME","ECCENTRICITY":"0.00014230","REV_AT_EPOCH":"5301","OBJECT_TYPE":"PAYLOAD","MEAN_ANOMALY":"264.7231","CENTER_NAME":"EARTH"}];
